{
  "norad_id": 49105,
  "name": "ONEWEB-0319",
  "history": [
    {
      "epoch": "2026-03-28T19:59:25.852704Z",
      "apogee_km": 1194.6830217066472,
      "perigee_km": 1192.7264578010954,
      "latitude_deg": -1.9914514515867865e-05,
      "longitude_deg": -104.2802374844473,
      "height_km": 1196.4713326971141,
      "semi_major_axis_km": 7571.8417397538715,
      "eccentricity": 0.0001292,
      "inclination_deg": 87.9177,
      "raan_deg": 21.8252,
      "arg_perigee_deg": 82.3726,
      "mean_anomaly_deg": 277.7552,
      "mean_motion_rev_day": 13.17651224
    },
    {
      "epoch": "2026-03-29T05:06:10.330848Z",
      "apogee_km": 1194.6834197564121,
      "perigee_km": 1192.7344266157834,
      "latitude_deg": 2.1732447394498132e-05,
      "longitude_deg": 118.58490734124385,
      "height_km": 1196.4837525977307,
      "semi_major_axis_km": 7571.845923186097,
      "eccentricity": 0.0001287,
      "inclination_deg": 87.9178,
      "raan_deg": 21.7499,
      "arg_perigee_deg": 82.8311,
      "mean_anomaly_deg": 277.2967,
      "mean_motion_rev_day": 13.17650132
    },
    {
      "epoch": "2026-03-30T01:08:59.874144Z",
      "apogee_km": 1194.6798167222123,
      "perigee_km": 1192.7293103354477,
      "latitude_deg": -2.285848593927188e-05,
      "longitude_deg": 176.88957083217943,
      "height_km": 1196.4977980087633,
      "semi_major_axis_km": 7571.84156352883,
      "eccentricity": 0.0001288,
      "inclination_deg": 87.9179,
      "raan_deg": 21.5843,
      "arg_perigee_deg": 83.9249,
      "mean_anomaly_deg": 276.2029,
      "mean_motion_rev_day": 13.1765127
    },
    {
      "epoch": "2026-03-30T04:47:41.640864Z",
      "apogee_km": 1194.6706848825834,
      "perigee_km": 1192.7403193550927,
      "latitude_deg": 2.8269872085853035e-05,
      "longitude_deg": 122.03565268749894,
      "height_km": 1196.500230771218,
      "semi_major_axis_km": 7571.842502118838,
      "eccentricity": 0.00012747,
      "inclination_deg": 87.9179,
      "raan_deg": 21.5541,
      "arg_perigee_deg": 83.9496,
      "mean_anomaly_deg": 276.1781,
      "mean_motion_rev_day": 13.17651025
    }
  ]
}